{
  "type": "FeatureCollection",
  "features": [
    {
      "type": "Feature",
      "properties": {
        "norad_id": 44333,
        "name": "AT&T T-16",
        "group": "intelsat",
        "lat": 0.02744048901855583,
        "lon": 127.95150855701529,
        "alt_km": 35784.967624403354,
        "timestamp": "2025-12-10T09:57:44.372321+00:00",
        "meta_object_name": "AT&T T-16",
        "meta_object_id": "2019-034A",
        "meta_epoch": "2025-12-10T04:31:38.802720",
        "meta_mean_motion": 1.00268581,
        "meta_eccentricity": 5.21e-05,
        "meta_inclination": 0.0259,
        "meta_ra_of_asc_node": 67.7033,
        "meta_arg_of_pericenter": 83.3692,
        "meta_mean_anomaly": 255.1407,
        "meta_ephemeris_type": 0,
        "meta_classification_type": "U",
        "meta_norad_cat_id": 44333,
        "meta_element_set_no": 999,
        "meta_rev_at_epoch": 2373,
        "meta_bstar": 0,
        "meta_mean_motion_dot": -1.12e-06,
        "meta_mean_motion_ddot": 0,
        "tle_line1": "1 44333U 19034A   25344.18864355 -.00000112  00000+0  00000+0 0  9995",
        "tle_line2": "2 44333   0.0259  67.7033 0000521  83.3692 255.1407  1.00268581 23730"
      },
      "geometry": {
        "type": "Point",
        "coordinates": [
          127.95150855701529,
          0.02744048901855583
        ]
      }
    },
    {
      "type": "Feature",
      "properties": {
        "norad_id": 44476,
        "name": "INTELSAT 39 (IS-39)",
        "group": "intelsat",
        "lat": -0.021620496522557948,
        "lon": -69.2242150557609,
        "alt_km": 35789.475945935344,
        "timestamp": "2025-12-10T09:57:44.372333+00:00",
        "meta_object_name": "INTELSAT 39 (IS-39)",
        "meta_object_id": "2019-049B",
        "meta_epoch": "2025-12-10T00:53:38.582304",
        "meta_mean_motion": 1.0027051,
        "meta_eccentricity": 9.58e-05,
        "meta_inclination": 0.0171,
        "meta_ra_of_asc_node": 322.3711,
        "meta_arg_of_pericenter": 189.1323,
        "meta_mean_anomaly": 2.8736,
        "meta_ephemeris_type": 0,
        "meta_classification_type": "U",
        "meta_norad_cat_id": 44476,
        "meta_element_set_no": 999,
        "meta_rev_at_epoch": 2323,
        "meta_bstar": 0,
        "meta_mean_motion_dot": 3.7e-07,
        "meta_mean_motion_ddot": 0,
        "tle_line1": "1 44476U 19049B   25344.03725211  .00000037  00000+0  00000+0 0  9995",
        "tle_line2": "2 44476   0.0171 322.3711 0000958 189.1323   2.8736  1.00270510 23236"
      },
      "geometry": {
        "type": "Point",
        "coordinates": [
          -69.2242150557609,
          -0.021620496522557948
        ]
      }
    },
    {
      "type": "Feature",
      "properties": {
        "norad_id": 46114,
        "name": "GALAXY 30 (G-30)",
        "group": "intelsat",
        "lat": 0.03291667286738072,
        "lon": 103.80702077929611,
        "alt_km": 35795.17254788874,
        "timestamp": "2025-12-10T09:57:44.372345+00:00",
        "meta_object_name": "GALAXY 30 (G-30)",
        "meta_object_id": "2020-056C",
        "meta_epoch": "2025-12-09T14:41:23.762112",
        "meta_mean_motion": 1.0027148,
        "meta_eccentricity": 0.0002377,
        "meta_inclination": 0.0165,
        "meta_ra_of_asc_node": 5.2099,
        "meta_arg_of_pericenter": 252.81,
        "meta_mean_anomaly": 275.9252,
        "meta_ephemeris_type": 0,
        "meta_classification_type": "U",
        "meta_norad_cat_id": 46114,
        "meta_element_set_no": 999,
        "meta_rev_at_epoch": 1939,
        "meta_bstar": 0,
        "meta_mean_motion_dot": 3.9e-07,
        "meta_mean_motion_ddot": 0,
        "tle_line1": "1 46114U 20056C   25343.61208058  .00000039  00000+0  00000+0 0  9996",
        "tle_line2": "2 46114   0.0165   5.2099 0002377 252.8100 275.9252  1.00271480 19399"
      },
      "geometry": {
        "type": "Point",
        "coordinates": [
          103.80702077929611,
          0.03291667286738072
        ]
      }
    },
    {
      "type": "Feature",
      "properties": {
        "norad_id": 54026,
        "name": "GALAXY 33 (G-33)",
        "group": "intelsat",
        "lat": 0.02042750288866828,
        "lon": 95.81821356189785,
        "alt_km": 35794.189044747895,
        "timestamp": "2025-12-10T09:57:44.372357+00:00",
        "meta_object_name": "GALAXY 33 (G-33)",
        "meta_object_id": "2022-128A",
        "meta_epoch": "2025-12-10T03:48:38.551392",
        "meta_mean_motion": 1.0027257,
        "meta_eccentricity": 0.0002197,
        "meta_inclination": 0.0114,
        "meta_ra_of_asc_node": 310.8849,
        "meta_arg_of_pericenter": 298.7469,
        "meta_mean_anomaly": 113.6731,
        "meta_ephemeris_type": 0,
        "meta_classification_type": "U",
        "meta_norad_cat_id": 54026,
        "meta_element_set_no": 999,
        "meta_rev_at_epoch": 1184,
        "meta_bstar": 0,
        "meta_mean_motion_dot": 8.2e-07,
        "meta_mean_motion_ddot": 0,
        "tle_line1": "1 54026U 22128A   25344.15877953  .00000082  00000+0  00000+0 0  9993",
        "tle_line2": "2 54026   0.0114 310.8849 0002197 298.7469 113.6731  1.00272570 11842"
      },
      "geometry": {
        "type": "Point",
        "coordinates": [
          95.81821356189785,
          0.02042750288866828
        ]
      }
    },
    {
      "type": "Feature",
      "properties": {
        "norad_id": 54027,
        "name": "GALAXY 34 (G-34)",
        "group": "intelsat",
        "lat": 0.03370092848432719,
        "lon": 99.88379533235602,
        "alt_km": 35791.354831510835,
        "timestamp": "2025-12-10T09:57:44.372369+00:00",
        "meta_object_name": "GALAXY 34 (G-34)",
        "meta_object_id": "2022-128B",
        "meta_epoch": "2025-12-10T01:35:38.736384",
        "meta_mean_motion": 1.00270698,
        "meta_eccentricity": 0.0001395,
        "meta_inclination": 0.0243,
        "meta_ra_of_asc_node": 327.7719,
        "meta_arg_of_pericenter": 279.8514,
        "meta_mean_anomaly": 86.4064,
        "meta_ephemeris_type": 0,
        "meta_classification_type": "U",
        "meta_norad_cat_id": 54027,
        "meta_element_set_no": 999,
        "meta_rev_at_epoch": 1201,
        "meta_bstar": 0,
        "meta_mean_motion_dot": 0,
        "meta_mean_motion_ddot": 0,
        "tle_line1": "1 54027U 22128B   25344.06642056  .00000000  00000+0  00000+0 0  9998",
        "tle_line2": "2 54027   0.0243 327.7719 0001395 279.8514  86.4064  1.00270698 12014"
      },
      "geometry": {
        "type": "Point",
        "coordinates": [
          99.88379533235602,
          0.03370092848432719
        ]
      }
    },
    {
      "type": "Feature",
      "properties": {
        "norad_id": 54243,
        "name": "GALAXY 31 (G-31)",
        "group": "intelsat",
        "lat": 0.003948128405203344,
        "lon": 107.82261795563481,
        "alt_km": 35793.536071602,
        "timestamp": "2025-12-10T09:57:44.372381+00:00",
        "meta_object_name": "GALAXY 31 (G-31)",
        "meta_object_id": "2022-153A",
        "meta_epoch": "2025-12-10T04:39:38.509344",
        "meta_mean_motion": 1.00272195,
        "meta_eccentricity": 0.0001872,
        "meta_inclination": 0.0169,
        "meta_ra_of_asc_node": 256.6393,
        "meta_arg_of_pericenter": 14.3282,
        "meta_mean_anomaly": 117.1221,
        "meta_ephemeris_type": 0,
        "meta_classification_type": "U",
        "meta_norad_cat_id": 54243,
        "meta_element_set_no": 999,
        "meta_rev_at_epoch": 523,
        "meta_bstar": 0,
        "meta_mean_motion_dot": 1.6e-07,
        "meta_mean_motion_ddot": 0,
        "tle_line1": "1 54243U 22153A   25344.19419571  .00000016  00000+0  00000+0 0  9991",
        "tle_line2": "2 54243   0.0169 256.6393 0001872  14.3282 117.1221  1.00272195  5230"
      },
      "geometry": {
        "type": "Point",
        "coordinates": [
          107.82261795563481,
          0.003948128405203344
        ]
      }
    },
    {
      "type": "Feature",
      "properties": {
        "norad_id": 54244,
        "name": "GALAXY 32 (G-32)",
        "group": "intelsat",
        "lat": 0.01010492366553771,
        "lon": 137.81123042380167,
        "alt_km": 35797.81892106096,
        "timestamp": "2025-12-10T09:57:44.372393+00:00",
        "meta_object_name": "GALAXY 32 (G-32)",
        "meta_object_id": "2022-153B",
        "meta_epoch": "2025-12-09T12:24:44.332992",
        "meta_mean_motion": 1.00270521,
        "meta_eccentricity": 0.00027242,
        "meta_inclination": 0.0086,
        "meta_ra_of_asc_node": 338.62,
        "meta_arg_of_pericenter": 330.4778,
        "meta_mean_anomaly": 224.5904,
        "meta_ephemeris_type": 0,
        "meta_classification_type": "U",
        "meta_norad_cat_id": 54244,
        "meta_element_set_no": 999,
        "meta_rev_at_epoch": 1124,
        "meta_bstar": 0,
        "meta_mean_motion_dot": -1.72e-06,
        "meta_mean_motion_ddot": 0,
        "tle_line1": "1 54244U 22153B   25343.51717978 -.00000172  00000+0  00000+0 0  9993",
        "tle_line2": "2 54244   0.0086 338.6200 0002724 330.4778 224.5904  1.00270521 11246"
      },
      "geometry": {
        "type": "Point",
        "coordinates": [
          137.81123042380167,
          0.01010492366553771
        ]
      }
    }
  ]
}